[
    {
        "Altitude(m)": 624792.8016138982,
        "Argument of Periapsis(deg)": 0.0,
        "Eccentricity": 0.0,
        "Inclination(deg)": 60.0,
        "Latitude(deg)": -59.14717713268938,
        "Longitude(deg)": -115.97369613718472,
        "Mean Anomaly(deg)": 261.8182,
        "RAAN(deg)": 90.0,
        "Satellite Name": "Test1 412",
        "Satellite Number": 412,
        "Semi-Major Axis(m)": 6980739.136638005,
        "Time(s)": 0
    },
    {
        "Altitude(m)": 624842.1939474782,
        "Argument of Periapsis(deg)": 0.00010418945913296404,
        "Eccentricity": 0.0,
        "Inclination(deg)": 60.0,
        "Latitude(deg)": -59.28926187096539,
        "Longitude(deg)": -114.84418964752898,
        "Mean Anomaly(deg)": 262.43830614546187,
        "RAAN(deg)": 89.99957995086027,
        "Satellite Name": "Test1 412",
        "Satellite Number": 412,
        "Semi-Major Axis(m)": 6980739.136638005,
        "Time(s)": 10
    }
]